KUIPER-00071            
1 64818U 25151C   25273.27262446 -.00014364  00000+0 -18552-2 0  9995
2 64818  51.8984 292.4326 0008160  65.5273 294.6539 14.79993370 11513
KUIPER-00072            
1 64819U 25151D   25273.50003471  .00083799  00000+0  27457-2 0  9993
2 64819  51.8798 279.9150 0007701  58.2854 134.0844 15.30892707  5605
KUIPER-00073            
1 64820U 25151E   25273.30645348 -.00018072  00000+0 -23395-2 0  9999
2 64820  51.8994 292.2864 0013230  86.4964 273.7511 14.80010132 12703
KUIPER-00074            
1 64821U 25151F   25273.50003471 -.01201248  00000+0 -76003-1 0  9990
2 64821  51.8868 281.7366 0013834  89.3298 230.0283 15.11546570  4636
KUIPER-00075            
1 64822U 25151G   25273.29073301  .00029572  00000+0  77959-3 0  9994
2 64822  51.8778 280.4246 0006799  48.4688 311.6881 15.38238337 11682
KUIPER-00076            
1 64823U 25151H   25273.50003471 -.01402484  00000+0 -10474+0 0  9995
2 64823  51.8862 283.0747 0006045  76.2108  30.8928 15.05609221  5922
KUIPER-00077            
1 64824U 25151J   25273.50003471  .00051380  00000+0  54922-2 0  9997
2 64824  51.8969 286.6303 0006685  39.0138 132.3628 14.88240924  5777
KUIPER-00078            
1 64825U 25151K   25273.50003471 -.00974466  00000+0 -88957-1 0  9993
2 64825  51.8908 284.6971 0009537 104.4162 291.3611 14.97397124  5620
